COSMOS 2251 DEB         
1 34857U 93036ACB 25065.64802036  .00005075  00000+0  11277-2 0  9991
2 34857  74.0162 281.6250 0069999 115.5888 301.9806 14.55749162838067
COSMOS 2251 DEB         
1 34859U 93036ACD 25065.39273154  .00039445  00000+0  43612-2 0  9994
2 34859  74.0336 190.7740 0010404  16.2469  47.2108 14.87156521841475
COSMOS 2251 DEB         
1 34861U 93036ACF 25066.21893696  .00034268  00000+0  41654-2 0  9990
2 34861  74.0189 255.0142 0008886  53.7378  65.8412 14.83301726839242
COSMOS 2251 DEB         
1 34874U 93036ACM 25065.50740267  .00003518  00000+0  12366-2 0  9992
2 34874  74.0382 229.5060 0053818 324.8207  92.7771 14.34481149830099
COSMOS 2251 DEB         
1 34875U 93036ACN 25065.47012337  .00002213  00000+0  60594-3 0  9997
2 34875  74.0475 324.6841 0016339 163.6199  10.1174 14.47685918836836
COSMOS 2251 DEB         
1 34878U 93036ACR 25064.89332355  .00001237  00000+0  12310-2 0  9997
2 34878  73.9634 134.3286 0437011 172.6464 309.0335 13.43713669774865
COSMOS 2251 DEB         
1 34882U 93036ACV 25066.35288183  .00001478  00000+0  29355-3 0  9999
2 34882  74.0479  41.3701 0085297 241.6748 117.5796 14.60843959847887
COSMOS 2251 DEB         
1 34883U 93036ACW 25066.46208733  .00020574  00000+0  58567-2 0  9999
2 34883  74.2021 220.8836 0111435 122.3266 238.8741 14.41633703825606
COSMOS 2251 DEB         
1 34884U 93036ACX 25066.26147588  .00018063  00000+0  26126-2 0  9994
2 34884  74.0216 252.1092 0009845  67.2761 105.9276 14.76098367836520
COSMOS 2251 DEB         
1 34885U 93036ACY 25065.51688609  .00004087  00000+0  10721-2 0  9991
2 34885  74.0350 351.6903 0015794 155.7404  18.3078 14.49466237834084
COSMOS 2251 DEB         
1 34886U 93036ACZ 25065.68409174  .00038345  00000+0  21808-2 0  9990
2 34886  73.9635  55.6099 0059880 304.9777  54.5801 15.11147519587205
COSMOS 2251 DEB         
1 34907U 93036ADC 25064.82215375  .00041542  00000+0  44524-2 0  9990
2 34907  73.9975 268.8543 0008479 101.2739 270.2716 14.88419913837283
COSMOS 2251 DEB         
1 34908U 93036ADD 25065.57705016  .00002825  00000+0  96729-3 0  9996
2 34908  74.0601 179.8191 0042931 270.1329 101.5492 14.36185862832417
COSMOS 2251 DEB         
1 34909U 93036ADE 25065.29621124  .00005404  00000+0  75825-3 0  9993
2 34909  74.0124 268.6345 0088485 115.6815 245.3530 14.74995597852141
COSMOS 2251 DEB         
1 34910U 93036ADF 25065.61287326  .00000635  00000+0  66699-3 0  9993
2 34910  73.8755 184.8645 0470287 351.3548  18.6720 13.37131232777660
COSMOS 2251 DEB         
1 34911U 93036ADG 25065.73913182  .00001145  00000+0  23930-3 0  9991
2 34911  74.0391  60.0494 0086205 258.0774 276.3134 14.58790089844880
COSMOS 2251 DEB         
1 34913U 93036ADJ 25065.74187681  .00000180  00000+0  73045-4 0  9992
2 34913  74.0258  77.4177 0022347 258.5739 216.5431 14.34525252611584
COSMOS 2251 DEB         
1 34914U 93036ADK 25066.33473718  .00254610  00000+0  40615-2 0  9992
2 34914  73.9674 301.5637 0031225 258.2353 101.5357 15.51704358849973
COSMOS 2251 DEB         
1 34918U 93036ADP 25064.86642451  .00010865  00000+0  24912-2 0  9998
2 34918  74.0716 128.9263 0031204 172.6935 309.8713 14.55329610612271
COSMOS 2251 DEB         
1 34920U 93036ADR 25064.79834151  .00113479  00000+0  70110-2 0  9999
2 34920  74.0053 221.6580 0003686  24.5826 335.5541 15.09272890631934
COSMOS 2251 DEB         
1 34924U 93036ADV 25065.64585811  .00005063  00000+0  11058-2 0  9999
2 34924  74.0401 264.4164 0058217  60.4730   3.6964 14.57009304836255
COSMOS 2251 DEB         
1 34944U 93036ADX 25064.54922514  .00003295  00000+0  14011-2 0  9991
2 34944  73.7528  20.6676 0225440 273.4053  84.1324 14.12933474821647
COSMOS 2251 DEB         
1 34946U 93036ADZ 25065.65121813  .00003670  00000+0  75891-3 0  9990
2 34946  74.0241 159.7437 0053234   4.7192 355.4463 14.59808922841047
COSMOS 2251 DEB         
1 34948U 93036AEB 25066.52095637  .00337483  00000+0  99301-2 0  9996
2 34948  73.9854 242.7990 0009054  35.6288 324.5519 15.33568314839603
COSMOS 2251 DEB         
1 34949U 93036AEC 25066.32182766  .00003440  00000+0  52765-3 0  9992
2 34949  74.0194 296.4726 0083205 153.3900 207.1580 14.71698948849989
COSMOS 2251 DEB         
1 34951U 93036AEE 25066.29013495  .00050177  00000+0  29207-2 0  9996
2 34951  73.9974 274.8970 0033304 121.6100 238.8350 15.11313335849752
COSMOS 2251 DEB         
1 34953U 93036AEG 25065.72663488  .00008890  00000+0  16107-2 0  9998
2 34953  74.0933 208.0489 0061852 278.6391 143.5750 14.65164747840070
COSMOS 2251 DEB         
1 34954U 93036AEH 25065.73929066  .00111086  00000+0  71454-2 0  9995
2 34954  73.9676 211.5732 0015804  35.7133 324.5111 15.07713336838480
COSMOS 2251 DEB         
1 34955U 93036AEJ 25066.34110034  .00009205  00000+0  79181-3 0  9996
2 34955  74.0381  94.0690 0088388 241.9422 117.2804 14.94481789858513
COSMOS 2251 DEB         
1 34958U 93036AEM 25065.11162569  .00049423  00000+0  13894-2 0  9997
2 34958  73.9996 211.9155 0062671   7.9922 352.2264 15.34275337859207
COSMOS 2251 DEB         
1 34962U 93036AER 25065.54220693  .00002592  00000+0  74427-3 0  9998
2 34962  74.0337 358.1197 0019683 186.8421 173.2471 14.45268995835140
COSMOS 2251 DEB         
1 34963U 93036AES 25063.75017801  .00008901  00000+0  23954-2 0  9993
2 34963  74.1732 209.2590 0043960 121.1917 239.3563 14.47525934827015
COSMOS 2251 DEB         
1 34964U 93036AET 25054.88569910  .00004509  00000+0  26068-2 0  9990
2 34964  73.9733 134.8890 0216519  54.4497 307.6609 13.98135283803959
COSMOS 2251 DEB         
1 34965U 93036AEU 25064.96597216  .00001481  00000+0  40590-3 0  9994
2 34965  74.0522 295.6014 0026020 135.3987 224.9272 14.47807832838294
COSMOS 2251 DEB         
1 34967U 93036AEW 25065.70248660  .00003663  00000+0  10998-2 0  9997
2 34967  73.9936  57.4218 0043340 270.5825  89.0365 14.42532117609026
COSMOS 2251 DEB         
1 34968U 93036AEX 25063.67058884  .00001448  00000+0  29989-3 0  9999
2 34968  74.0373  66.4064 0089275 259.6811  99.4280 14.58778067843498
COSMOS 2251 DEB         
1 34969U 93036AEY 25065.54818229  .00001191  00000+0  44312-3 0  9997
2 34969  74.0151 176.6774 0075530  14.2841 346.0420 14.31573391611126
COSMOS 2251 DEB         
1 34971U 93036AFA 25066.44148356  .00001238  00000+0  28534-3 0  9997
2 34971  73.9764  97.7824 0070460  27.3154  37.9751 14.54922063843551
COSMOS 2251 DEB         
1 34972U 93036AFB 25065.24577013  .00013855  00000+0  24948-2 0  9993
2 34972  73.9891 236.8169 0040825 100.3178  72.6083 14.66053749835151
COSMOS 2251 DEB         
1 34976U 93036AFF 25065.46393211  .00008910  00000+0  14018-2 0  9990
2 34976  74.0590 134.4736 0052695 260.8668 110.5951 14.71702026841293
COSMOS 2251 DEB         
1 34979U 93036AFJ 25066.50948450  .00008551  00000+0  12785-2 0  9990
2 34979  74.0398  96.0763 0056999 251.8422 107.6539 14.73743706840913
COSMOS 2251 DEB         
1 34989U 93036AFM 25066.13654960  .00033745  00000+0  27723-2 0  9991
2 34989  74.0035 101.7876 0024397 306.6577  53.2365 14.98788865839179
COSMOS 2251 DEB         
1 34990U 93036AFN 25065.32356436  .00002044  00000+0  63778-3 0  9999
2 34990  74.0458  52.6290 0016750 196.1977 163.8645 14.41384810832907
COSMOS 2251 DEB         
1 34997U 93036AFV 25059.85651577  .00012488  00000+0  35882-2 0  9998
2 34997  73.8818 129.7861 0098142 165.5659 194.8338 14.42088658827665
COSMOS 2251 DEB         
1 34998U 93036AFW 25064.49478315  .00003010  00000+0  81982-3 0  9996
2 34998  74.0144 329.5473 0022446 186.7131 346.6601 14.47717810833339
COSMOS 2251 DEB         
1 35000U 93036AFY 25065.05306372  .00046054  00000+0  35710-2 0  9999
2 35000  74.0229  71.0496 0039748 230.5611 129.2057 15.00531301842290
COSMOS 2251 DEB         
1 35012U 93036AFZ 25065.57218915  .00000770  00000+0  21935-3 0  9994
2 35012  74.0182 276.3178 0080523 125.0915 235.7828 14.45103471834998
COSMOS 2251 DEB         
1 35014U 93036AGB 25065.19392686  .00015355  00000+0  26818-2 0  9991
2 35014  74.0016 231.9857 0010846  97.0393 263.2011 14.67902236671951
COSMOS 2251 DEB         
1 35015U 93036AGC 25066.26866990  .00006646  00000+0  18605-2 0  9993
2 35015  73.9499  40.6943 0078996 329.7136  93.9433 14.44456505832500
COSMOS 2251 DEB         
1 35016U 93036AGD 25064.08518429  .00001301  00000+0  44128-3 0  9996
2 35016  73.9291  95.6763 0112946  72.3230 320.0893 14.34164618827295
COSMOS 2251 DEB         
1 35018U 93036AGF 25065.15099180  .00004972  00000+0  39846-2 0  9992
2 35018  73.9792 213.2799 0350726 179.8058 180.3261 13.65915985793394
COSMOS 2251 DEB         
1 35020U 93036AGH 25064.29506274  .00000923  00000+0  17907-3 0  9993
2 35020  74.0504  19.6808 0092809 208.2585 151.3531 14.62066528841093
COSMOS 2251 DEB         
1 35022U 93036AGK 25063.47578375  .00002789  00000+0  58914-3 0  9990
2 35022  74.0269 142.8399 0048412  49.7952 310.7434 14.59115651843828
COSMOS 2251 DEB         
1 35023U 93036AGL 25065.71462050  .00016840  00000+0  19752-2 0  9991
2 35023  74.0419  54.3088 0044679 214.2180 318.6949 14.84231314840953
COSMOS 2251 DEB         
1 35025U 93036AGN 25065.76636581  .00004439  00000+0  69174-3 0  9995
2 35025  73.9369 252.5953 0088177 230.9731 128.3568 14.70650925845099
COSMOS 2251 DEB         
1 35026U 93036AGP 25065.42045389  .00000386  00000+0  95668-4 0  9994
2 35026  74.0463 129.7758 0084987 314.3419  56.3720 14.53379225840569
COSMOS 2251 DEB         
1 35028U 93036AGR 25065.78220995  .00000689  00000+0  15550-3 0  9990
2 35028  74.0361  84.0068 0085272 289.0224 246.0388 14.56203916841953
COSMOS 2251 DEB         
1 35031U 93036AGU 25066.22725700  .00000892  00000+0  30364-3 0  9994
2 35031  74.0372  55.9054 0020192 225.1489 134.8025 14.37876084832587
COSMOS 2251 DEB         
1 35032U 93036AGV 25065.60630918  .00006949  00000+0  15477-2 0  9998
2 35032  73.8526 187.3958 0070156  92.6256 280.0843 14.55551861835794
COSMOS 2251 DEB         
1 35033U 93036AGW 25065.03262764  .00003793  00000+0  10053-2 0  9995
2 35033  74.0288 345.8597 0015500 169.6919 190.4561 14.48996482618442
